Street1,City,State,ZIPCode
8900 Old Seward Hwy Wm,Anchorage,AK,
3101 A St Wm,Anchorage,AK,
800 W Northern Lights Blvd,Anchorage,AK,99503
701 E 36th Ave,Anchorage,AK,99503
8915 Old Seward Hwy,Anchorage,AK,99515
1320 Huffman Rd,Anchorage,AK,99515
2601 E Tudor Rd,Anchorage,AK,99507
3006 Mountain View Dr,Anchorage,AK,99501
5716 Debarr Rd,Anchorage,AK,99504
255 Muldoon Rd,Anchorage,AK,99504
5000 W Intl Airport Rd,Anchorage,AK,99502
1166 North Muldoon Road Glenn Hwy,Anchorage,AK,99504
3828 W Dimond Blvd,Anchorage,AK,99502
4350 Spenard Rd,Anchorage,AK,99517
9100 Lake Otis Pkwy,Anchorage,AK,99507
3035 Muldoon Rd,Anchorage,AK,99504
11808 Old Glenn Hwy,Eagle River,AK,99577
1930 Airport Way,Fairbanks,AK,99701
449 Harold Bentley Ave,Fairbanks,AK,99701
3905 Geist Rd,Fairbanks,AK,99709
3656 Ben Walters Ln,Homer,AK,99603
2285 Trout St,Juneau,AK,99801
10447 Kenai Spur Hwy,Kenai,AK,99611
2417 Tongass Ave Ste 108,Ketchikan,AK,99901
352 N Santa Claus Ln,North Pole,AK,99705
600 W Daron Dr,Palmer,AK,99645
913 Halibut Point Rd,Sitka,AK,99835
44420 Sterling Hwy,Soldotna,AK,99669
1350 S Seward Meridian Pkwy,Wasilla,AK,99654
801 E Parks Hwy,Wasilla,AK,99654
5721 Veterans Memorial Dr,Adamsville,AL,35005
205 S Colonial Dr,Alabaster,AL,35007
1499 1st St N,Alabaster,AL,35007
7375 US Highway 431,Albertville,AL,35950
4094 Highway 280,Alexander City,AL,35010
87134 US Highway 278,Altoona,AL,35952
315 W Bypass,Andalusia,AL,36420
1901 Quintard Ave,Anniston,AL,36201
5550 McClellan Blvd,Anniston,AL,36206
3424 Greenbrier Dear Rd,Anniston,AL,36207
700 N Brandlee Pkwy,Arab,AL,
26862 Main St,Ardmore,AL,35739
83690 Highway 9,Ashland,AL,36251
103 Us 31 N,Athens,AL,
1529 Us 72 E,Athens,AL,
1414 S Main St,Atmore,AL,36502
610 Cleveland Ave,Attalla,AL,35954
224 W Magnolia Ave,Auburn,AL,36830
2372 S College St,Auburn,AL,36832
1634 Opelika Rd,Auburn,AL,36830
98 McMeans Ave,Bay Minette,AL,36507
1295 Greenmor Dr,Bessemer,AL,35022
765 Academy Dr,Bessemer,AL,35022
911 9th Ave N,Bessemer,AL,35020
5919 Trussville Crossings Pkwy,Birmingham,AL,35235
Hwy Us 280 Wm,Birmingham,AL,
9248 Parkway E Wm,Birmingham,AL,
732 Lomb Ave SW,Birmingham,AL,35211
801 Dennison Ave SW,Birmingham,AL,35211
1700 Finley Blvd,Birmingham,AL,35204
3220 26th St N,Birmingham,AL,35207
1501 5th Ave S,Birmingham,AL,35233
3013 12th Ave N,Birmingham,AL,35234
2001 Montgomery Hwy,Birmingham,AL,
2733 Reverend Abraham Woods Jr Blvd,Birmingham,AL,35203
5904 1st Ave N,Birmingham,AL,35212
1907 Center Point Pkwy,Birmingham,AL,35215
218 Gadsden Hwy,Birmingham,AL,35235
1309 Forestdale Blvd,Birmingham,AL,35214
2201 Bessemer Rd,Birmingham,AL,35208
2640 Valleydale Rd,Hoover,AL,35244
1569 Montclair Rd,Irondale,AL,35210
4625 Highway 280,Birmingham,AL,35242
200 Gadsden Hwy,Birmingham,AL,35235
861 US Highway 431,Boaz,AL,35957
464 South Blvd,Brewton,AL,36426
3633 Jaybird Rd,Brighton,AL,35020
706 Supercenter Dr,Calera,AL,35040
650 Cedar Bluff Rd,Centre,AL,35960
187 Walnut St,Centreville,AL,35042
16758 Highway 280,Chelsea,AL,35043
33785 US Highway 280,Childersburg,AL,35044
1415 7th St S,Clanton,AL,35045
2251 7th St S,Clanton,AL,35046
301 W College St,Columbiana,AL,35051
6501 Interstate Ln,Cottondale,AL,35453
6065 AL Highway 157,Cullman,AL,35058
1602 Town Sq SW,Cullman,AL,35055
17956 Highway 280,Dadeville,AL,36853
575 N Daleville Ave,Daleville,AL,36322
29138 Us 98,Daphne,AL,
29919 Woodrow Ln,Daphne,AL,36527
2225 Danville Rd SW,Decatur,AL,35601
1208 6th Ave SE,Decatur,AL,35601
3342 Point Mallard Pkwy SE,Decatur,AL,35603
1111 S Walnut Ave,Demopolis,AL,36732
231 Hwy 69 S,Dodge City,AL,
2445 Highway 78,Dora,AL,35062
619 W Main St,Dothan,AL,36301
2101 Ross Clark Cir,Dothan,AL,36301
1081 Ross Clark Cir,Dothan,AL,36303
3520 Ross Clark Cir,Dothan,AL,36303
2251 Reeves St,Dothan,AL,36303
3520 Avenue E,Ensley,AL,35218
600 Boll Weevil Circle Wm,Enterprise,AL,
652 Boll Weevil Cir,Enterprise,AL,36330
1250 S Eufaula Ave,Eufaula,AL,36027
RR 2 Box 294,Evergreen,AL,36401
111 Greeno Rd N,Fairhope,AL,36532
10040 County Road 48,Fairhope,AL,36532
64 E Pike Rd,Falkville,AL,35622
1421 Temple Ave N,Fayette,AL,35555
3183 Cloverdale Rd,Florence,AL,35633
1155 N Wood Ave,Florence,AL,35630
306 Cox Creek Pwky,Florence,AL,
1505 Florence Blvd,Florence,AL,35630
2200 S Mckenzie St Wm,Foley,AL,
1010 S McKenzie St,Foley,AL,36535
205 Glenn Blvd SW,Fort Payne,AL,35967
239 Howell St,Fultondale,AL,35068
200 N 12th St,Gadsden,AL,35901
952 Rainbow Dr,Gadsden,AL,35901
890 Odum Rd Wm,Gardendale,AL,
1017 Decatur Hwy,Gardendale,AL,35071
1205 W Maple Ave,Geneva,AL,36340
616 Chastain Blvd W,Glencoe,AL,35905
9200 Grand Bay Wilmer Rd S,Grand Bay,AL,36541
1401 State St,Greensboro,AL,36744
112 Greenville Byp,Greenville,AL,36037
2000 Gulf Shores Pkwy,Gulf Shores,AL,36542
1745 Gunter Ave,Guntersville,AL,35976
2006 11th Ave,Haleyville,AL,35565
Hwy 78 Military St S,Hamilton,AL,
740 Main St NE,Hanceville,AL,35077
201 Highway 31 SW,Hartselle,AL,35640
14267 Us 231,Hazel Green,AL,
7210 Wyndham Pkwy,Helena,AL,35080
100 State Farm Pkwy,Homewood,AL,35209
818 Green Springs Hwy,Homewood,AL,35209
2780 John Hawkins Pkwy Wm,Hoover,AL,
2000 Riverchase Galleria,Hoover,AL,35244
1547 Montgomery Hwy,Hoover,AL,35216
1731 Montgomery Hwy,Hoover,AL,35244
1007 Red Farmer Rd Wm,Hueytown,AL,
3069 Allison Bonnett Memorial Dr,Hueytown,AL,35023
6100 University Dr NW,Huntsville,AL,35806
4002 University Dr NW,Huntsville,AL,35816
2704 Memorial Pkwy SW,Huntsville,AL,35801
4965 Memorial Pkwy NW,Huntsville,AL,35810
310 Governors Dr SE,Huntsville,AL,
2234 Winchester Rd NE,Huntsville,AL,35811
2600 Memorial Pkwy NW,Huntsville,AL,35810
4810 Whitesburg Dr SW,Huntsville,AL,35802
10031 S Memorial Pky,Huntsvil,,
